[{"OBJECT_NAME":"STARLINK-34737","OBJECT_ID":"2025-158B","EPOCH":"2026-03-09T14:50:30.416640","MEAN_MOTION":15.056456,"ECCENTRICITY":0.0002052,"INCLINATION":97.6034,"RA_OF_ASC_NODE":293.9846,"ARG_OF_PERICENTER":78.4884,"MEAN_ANOMALY":281.6573,"EPHEMERIS_TYPE":0,"CLASSIFICATION_TYPE":"U","NORAD_CAT_ID":64933,"ELEMENT_SET_NO":999,"REV_AT_EPOCH":3534,"BSTAR":-0.00047628,"MEAN_MOTION_DOT":-6.926e-5,"MEAN_MOTION_DDOT":0},{"OBJECT_NAME":"CZ-6A DEB","OBJECT_ID":"2024-140RN","EPOCH":"2026-03-09T09:36:23.350464","MEAN_MOTION":14.99974811,"ECCENTRICITY":0.0047719,"INCLINATION":88.1445,"RA_OF_ASC_NODE":217.6461,"ARG_OF_PERICENTER":172.1525,"MEAN_ANOMALY":188.0467,"EPHEMERIS_TYPE":0,"CLASSIFICATION_TYPE":"U","NORAD_CAT_ID":61168,"ELEMENT_SET_NO":999,"REV_AT_EPOCH":8322,"BSTAR":0.0063622011,"MEAN_MOTION_DOT":0.00081758,"MEAN_MOTION_DDOT":0}]
